NORAD_CAT_ID,OBJECT_NAME,OBJECT_TYPE,EPOCH,MEAN_MOTION,ECCENTRICITY,INCLINATION,RA_OF_ASC_NODE,ARG_OF_PERICENTER,MEAN_ANOMALY,BSTAR,MEAN_MOTION_DOT,MEAN_MOTION_DDOT,TLE_LINE0,TLE_LINE1,TLE_LINE2,SEMIMAJOR_AXIS,PERIOD,APOGEE,PERIGEE,DECAYED
52364.0,STARLINK-3820,PAYLOAD,2023-11-05 01:57:25,15.08849262,0.0001569,53.2188,70.0077,76.3275,283.7892,0.00029012,4.333e-05,0.0,0 STARLINK-3820,1 52364U 22045AK  23309.08154699  .00004333  00000-0  29012-3 0  9992,2 52364  53.2188  70.0077 0001569  76.3275 283.7892 15.08849262 86751,6917.852,95.437,540.802,538.632,0.0
52364.0,STARLINK-3820,PAYLOAD,2023-11-05 14:40:30,15.08859799,0.0001424,53.2193,67.6269,84.823,275.2925,0.00043759,6.687e-05,0.0,0 STARLINK-3820,1 52364U 22045AK  23309.61146076  .00006687  00000-0  43759-3 0  9999,2 52364  53.2193  67.6269 0001424  84.8230 275.2925 15.08859799 86835,6917.82,95.436,540.67,538.7,0.0
52364.0,STARLINK-3820,PAYLOAD,2023-11-06 11:20:31,15.08814872,0.000163,53.2176,63.7622,92.1722,267.9456,-0.0008718,-0.00014126,0.0,0 STARLINK-3820,1 52364U 22045AK  23310.47258274 -.00014126  00000-0 -87180-3 0  9994,2 52364  53.2176  63.7622 0001630  92.1722 267.9456 15.08814872 86967,6917.957,95.439,540.95,538.695,0.0
52364.0,STARLINK-3820,PAYLOAD,2023-11-06 12:55:53,15.08870857,0.0001098,53.2172,63.4646,64.1956,295.9149,0.00059332,9.175e-05,0.0,0 STARLINK-3820,1 52364U 22045AK  23310.53881133  .00009175  00000-0  59332-3 0  9991,2 52364  53.2172  63.4646 0001098  64.1956 295.9149 15.08870857 86978,6917.786,95.436,540.411,538.892,0.0
52364.0,STARLINK-3820,PAYLOAD,2023-11-07 00:03:36,15.08824022,0.0001469,53.2174,61.3828,65.1501,294.9643,-0.00034658,-5.797e-05,0.0,0 STARLINK-3820,1 52364U 22045AK  23311.00250805 -.00005797  00000-0 -34658-3 0  9992,2 52364  53.2174  61.3828 0001469  65.1501 294.9643 15.08824022 87048,6917.929,95.439,540.81,538.778,0.0
52364.0,STARLINK-3820,PAYLOAD,2023-11-07 11:11:20,15.08802295,0.0001515,53.2177,59.3044,92.7303,267.3862,-0.000532,-8.736e-05,0.0,0 STARLINK-3820,1 52364U 22045AK  23311.46620427 -.00008736  00000-0 -53200-3 0  9993,2 52364  53.2177  59.3044 0001515  92.7303 267.3862 15.08802295 87119,6917.996,95.44,540.909,538.813,0.0
52364.0,STARLINK-3820,PAYLOAD,2023-11-07 14:22:06,15.08803634,0.0001348,53.2177,58.7095,76.6492,283.4651,-0.00037721,-6.28e-05,0.0,0 STARLINK-3820,1 52364U 22045AK  23311.59868847 -.00006280  00000-0 -37721-3 0  9999,2 52364  53.2177  58.7095 0001348  76.6492 283.4651 15.08803634 87137,6917.992,95.44,540.789,538.924,0.0
52364.0,STARLINK-3820,PAYLOAD,2023-11-07 23:54:20,15.08974958,0.0001877,53.2183,56.9269,263.0385,97.0394,0.0038772,0.00062193,0.0,0 STARLINK-3820,1 52364U 22045AK  23311.99607475  .00062193  00000-0  38772-2 0  9990,2 52364  53.2183  56.9269 0001877 263.0385  97.0394 15.08974958 87194,6917.468,95.429,540.631,538.034,0.0
52364.0,STARLINK-3820,PAYLOAD,2023-11-08 11:02:06,15.08875321,0.0001404,53.2184,54.8466,105.1675,254.9472,0.0017065,0.00027002,0.0,0 STARLINK-3820,1 52364U 22045AK  23312.45980008  .00027002  00000-0  17065-2 0  9990,2 52364  53.2184  54.8466 0001404 105.1675 254.9472 15.08875321 87268,6917.772,95.435,540.609,538.666,0.0
52364.0,STARLINK-3820,PAYLOAD,2023-11-08 12:37:30,15.08841538,0.0001619,53.2184,54.547,90.8575,269.2602,0.0008132,0.00012678,0.0,0 STARLINK-3820,1 52364U 22045AK  23312.52605251  .00012678  00000-0  81320-3 0  9991,2 52364  53.2184  54.5470 0001619  90.8575 269.2602 15.08841538 87275,6917.876,95.437,540.861,538.621,0.0
52364.0,STARLINK-3820,PAYLOAD,2023-11-08 23:45:15,15.08756977,0.000249,53.2187,52.4685,111.5649,248.5609,-0.0015372,-0.00024615,0.0,0 STARLINK-3820,1 52364U 22045AK  23312.98975713 -.00024615  00000-0 -15372-2 0  9993,2 52364  53.2187  52.4685 0002490 111.5649 248.5609 15.08756977 87341,6918.134,95.443,541.722,538.277,0.0
52364.0,STARLINK-3820,PAYLOAD,2023-11-09 12:28:17,15.08848596,0.0001342,53.2188,50.0896,87.0515,273.0631,0.0003328,5.014e-05,0.0,0 STARLINK-3820,1 52364U 22045AK  23313.51964647  .00005014  00000-0  33280-3 0  9996,2 52364  53.2188  50.0896 0001342  87.0515 273.0631 15.08848596 87420,6917.854,95.437,540.647,538.791,0.0
52364.0,STARLINK-3820,PAYLOAD,2023-11-09 14:03:40,15.08857709,0.0001244,53.2169,49.7889,104.9853,255.1277,0.0005328,8.206e-05,0.0,0 STARLINK-3820,1 52364U 22045AK  23313.58588201  .00008206  00000-0  53280-3 0  9999,2 52364  53.2169  49.7889 0001244 104.9853 255.1277 15.08857709 87435,6917.826,95.436,540.552,538.831,0.0
52364.0,STARLINK-3820,PAYLOAD,2023-11-10 12:19:03,15.08850441,0.0001388,53.2174,45.623,95.2174,264.8976,8.6951e-05,1.097e-05,0.0,0 STARLINK-3820,1 52364U 22045AK  23314.51323935  .00001097  00000-0  86951-4 0  9997,2 52364  53.2174  45.6230 0001388  95.2174 264.8976 15.08850441 87577,6917.848,95.437,540.674,538.753,0.0
52364.0,STARLINK-3820,PAYLOAD,2023-11-10 13:54:26,15.08855402,0.0001468,53.2177,45.327,91.4241,268.6919,0.00013743,1.901e-05,0.0,0 STARLINK-3820,1 52364U 22045AK  23314.57947732  .00001901  00000-0  13743-3 0  9992,2 52364  53.2177  45.3270 0001468  91.4241 268.6919 15.08855402 87585,6917.833,95.437,540.714,538.683,0.0
52364.0,STARLINK-3820,PAYLOAD,2023-11-11 12:09:50,15.08846054,0.0001452,53.2174,41.1649,94.6816,265.4342,0.00012035,1.628e-05,0.0,0 STARLINK-3820,1 52364U 22045AK  23315.50683767  .00001628  00000-0  12035-3 0  9990,2 52364  53.2174  41.1649 0001452  94.6816 265.4342 15.08846054 87726,6917.862,95.437,540.731,538.722,0.0
52364.0,STARLINK-3820,PAYLOAD,2023-11-11 23:17:32,15.08839643,0.0001357,53.2174,39.0833,98.8768,261.2377,3.2442e-05,2.28e-06,0.0,0 STARLINK-3820,1 52364U 22045AK  23315.97051986  .00000228  00000-0  32442-4 0  9993,2 52364  53.2174  39.0833 0001357  98.8768 261.2377 15.08839643 87798,6917.881,95.438,540.685,538.808,0.0
52364.0,STARLINK-3820,PAYLOAD,2023-11-12 12:00:38,15.08840988,0.0001596,53.2183,36.7023,93.2898,266.8277,-1.6644e-06,-3.15e-06,0.0,0 STARLINK-3820,1 52364U 22045AK  23316.50044250 -.00000315  00000-0 -16644-5 0  9995,2 52364  53.2183  36.7023 0001596  93.2898 266.8277 15.08840988 87874,6917.877,95.437,540.846,538.638,0.0
52364.0,STARLINK-3820,PAYLOAD,2023-11-13 11:51:24,15.08856451,0.0001689,53.2178,32.2428,95.0758,265.0427,0.00030162,4.518e-05,0.0,0 STARLINK-3820,1 52364U 22045AK  23317.49403438  .00004518  00000-0  30162-3 0  9997,2 52364  53.2178  32.2428 0001689  95.0758 265.0427 15.08856451 88024,6917.83,95.437,540.864,538.527,0.0
52364.0,STARLINK-3820,PAYLOAD,2023-11-14 11:42:12,15.08837954,0.0001535,53.2179,27.7829,90.6596,269.4572,1.6588e-05,-2.4e-07,0.0,0 STARLINK-3820,1 52364U 22045AK  23318.48764241 -.00000024  00000-0  16588-4 0  9995,2 52364  53.2179  27.7829 0001535  90.6596 269.4572 15.08837954 88172,6917.887,95.438,540.814,538.69,0.0
52364.0,STARLINK-3820,PAYLOAD,2023-11-14 21:14:31,15.08836278,0.0001525,53.218,25.9988,88.9985,271.1182,-3.7972e-05,-8.92e-06,0.0,0 STARLINK-3820,1 52364U 22045AK  23318.88508355 -.00000892  00000-0 -37972-4 0  9995,2 52364  53.2180  25.9988 0001525  88.9985 271.1182 15.08836278 88233,6917.892,95.438,540.812,538.702,0.0
52364.0,STARLINK-3820,PAYLOAD,2023-11-15 11:33:00,15.0883803,0.0001503,53.218,23.3244,100.0632,260.0529,-0.00010832,-2.011e-05,0.0,0 STARLINK-3820,1 52364U 22045AK  23319.48125146 -.00002011  00000-0 -10832-3 0  9995,2 52364  53.2180  23.3244 0001503 100.0632 260.0529 15.08838030 88321,6917.886,95.438,540.791,538.712,0.0
52364.0,STARLINK-3820,PAYLOAD,2023-11-15 21:05:18,15.08842782,0.0001538,53.2181,21.5404,100.5107,259.6058,-5.2277e-05,-1.12e-05,0.0,0 STARLINK-3820,1 52364U 22045AK  23319.87868736 -.00001120  00000-0 -52277-4 0  9997,2 52364  53.2181  21.5404 0001538 100.5107 259.6058 15.08842782 88386,6917.872,95.437,540.801,538.673,0.0
52364.0,STARLINK-3820,PAYLOAD,2023-11-16 09:48:23,15.08837847,0.0001544,53.218,19.1612,97.6164,262.5004,0.00019024,2.741e-05,0.0,0 STARLINK-3820,1 52364U 22045AK  23320.40860847  .00002741  00000-0  19024-3 0  9993,2 52364  53.2180  19.1612 0001544  97.6164 262.5004 15.08837847 88464,6917.887,95.438,540.82,538.684,0.0
52364.0,STARLINK-3820,PAYLOAD,2023-11-16 14:34:32,15.08843346,0.0001572,53.2181,18.2688,96.6972,263.4199,0.00023201,3.407e-05,0.0,0 STARLINK-3820,1 52364U 22045AK  23320.60732501  .00003407  00000-0  23201-3 0  9992,2 52364  53.2181  18.2688 0001572  96.6972 263.4199 15.08843346 88494,6917.87,95.437,540.823,538.648,0.0
52364.0,STARLINK-3820,PAYLOAD,2023-11-16 20:56:05,15.08840584,0.0001578,53.2173,17.0778,89.9455,270.1718,0.00017594,2.513e-05,0.0,0 STARLINK-3820,1 52364U 22045AK  23320.87228935  .00002513  00000-0  17594-3 0  9997,2 52364  53.2173  17.0778 0001578  89.9455 270.1718 15.08840584 88537,6917.879,95.438,540.835,538.652,0.0
52364.0,STARLINK-3820,PAYLOAD,2023-11-17 03:17:38,15.08837476,0.0001666,53.2174,15.8887,87.1894,272.9289,0.00020503,2.976e-05,0.0,0 STARLINK-3820,1 52364U 22045AK  23321.13725181  .00002976  00000-0  20503-3 0  9999,2 52364  53.2174  15.8887 0001666  87.1894 272.9289 15.08837476 88573,6917.888,95.438,540.906,538.601,0.0
52364.0,STARLINK-3820,PAYLOAD,2023-11-17 11:14:33,15.08843743,0.0001598,53.2177,14.4031,90.3669,269.7506,0.00017596,2.514e-05,0.0,0 STARLINK-3820,1 52364U 22045AK  23321.46844841  .00002514  00000-0  17596-3 0  9996,2 52364  53.2177  14.4031 0001598  90.3669 269.7506 15.08843743 88628,6917.869,95.437,540.839,538.628,0.0
52364.0,STARLINK-3820,PAYLOAD,2023-11-17 20:46:52,15.0884086,0.000152,53.2168,12.6182,84.6023,275.5142,6.0293e-05,6.72e-06,0.0,0 STARLINK-3820,1 52364U 22045AK  23321.86588922  .00000672  00000-0  60293-4 0  9991,2 52364  53.2168  12.6182 0001520  84.6023 275.5142 15.08840860 88684,6917.878,95.438,540.794,538.691,0.0
52364.0,STARLINK-3820,PAYLOAD,2023-11-18 11:05:21,15.08843992,0.0001451,53.2174,9.942,98.7875,261.3281,4.9317e-05,4.97e-06,0.0,0 STARLINK-3820,1 52364U 22045AK  23322.46205025  .00000497  00000-0  49317-4 0  9997,2 52364  53.2174   9.9420 0001451  98.7875 261.3281 15.08843992 88775,6917.868,95.437,540.737,538.729,0.0
